IRIDIUM 26              
1 24903U 97043A   25175.21836692  .00000307  00000+0  96672-4 0  9991
2 24903  86.3958 107.6697 0002449  83.5235 276.6241 14.37150658457756
IRIDIUM 22              
1 24907U 97043E   25175.78115320  .00000249  00000+0  78933-4 0  9990
2 24907  86.3964 110.9792 0002260  83.5874 276.5580 14.35962730457867
DUMMY MASS 1            
1 24925U 97048A   25175.61772848  .00000292  00000+0  29462-4 0  9992
2 24925  86.3356 131.8945 0008839 112.2529 247.9634 14.86991308506236
DUMMY MASS 2            
1 24926U 97048B   25175.31188829  .00000299  00000+0  30408-4 0  9999
2 24926  86.3357 133.6440 0009356 122.8893 237.3233 14.86743318505967
IRIDIUM 29              
1 24944U 97051A   25175.31377519  .00000315  00000+0  10068-3 0  9997
2 24944  86.3973 140.9092 0002086  88.3200 271.8236 14.36473114454290
IRIDIUM 33              
1 24946U 97051C   25175.65209248  .00000229  00000+0  73539-4 0  9996
2 24946  86.3888 140.0282 0009833  61.5691 298.6495 14.34896596453815
IRIDIUM 28              
1 24948U 97051E   25175.35261965  .00000263  00000+0  81502-4 0  9996
2 24948  86.3977 138.4055 0002757  82.7449 277.4062 14.37390555454878
IRIDIUM 36              
1 24967U 97056C   25175.73247251  .00000305  00000+0  95129-4 0  9993
2 24967  86.3988 169.8298 0002318  82.2091 277.9370 14.37614935453304
